start=new Date('2022-06-07T00:00:00.000Z').valueOf();
sats=[{"MEAN_MOTION_DDOT":"0.0000000000000","PERIOD":"95.592","TLE_LINE2":"2 47601  53.0562  42.1751 0001872  61.0052 299.1124 15.06405023 74233","TLE_LINE1":"1 47601U 21009BF  22157.37859884  .00000203  00000-0  32525-4 0  9995","INCLINATION":"53.0562","MEAN_MOTION":"15.06405023","APOAPSIS":"548.495","TIME_SYSTEM":"UTC","FILE":"3484104","RCS_SIZE":"LARGE","GP_ID":"205494175","EPHEMERIS_TYPE":"0","MEAN_ANOMALY":"299.1124","COUNTRY_CODE":"US","REF_FRAME":"TEME","BSTAR":"0.00003252500000","CLASSIFICATION_TYPE":"U","OBJECT_NAME":"STARLINK-2006","ECCENTRICITY":"0.00018720","RA_OF_ASC_NODE":"42.1751","OBJECT_TYPE":"PAYLOAD","ARG_OF_PERICENTER":"61.0052","DECAY_DATE":null,"ELEMENT_SET_NO":"999","REV_AT_EPOCH":"7423","NORAD_CAT_ID":"47601","PERIAPSIS":"545.902","MEAN_MOTION_DOT":"0.00000203","EPOCH":"2022-06-06T09:05:10.939776","OBJECT_ID":"2021-009BF","LAUNCH_DATE":"2021-02-04","CENTER_NAME":"EARTH","SEMIMAJOR_AXIS":"6925.333","MEAN_ELEMENT_THEORY":"SGP4","SITE":"AFETR"},{"OBJECT_TYPE":"PAYLOAD","RA_OF_ASC_NODE":"49.9928","ECCENTRICITY":"0.00018140","REV_AT_EPOCH":"7416","ELEMENT_SET_NO":"999","DECAY_DATE":null,"ARG_OF_PERICENTER":"60.2753","SEMIMAJOR_AXIS":"6925.361","CENTER_NAME":"EARTH","LAUNCH_DATE":"2021-02-04","OBJECT_ID":"2021-009BG","EPOCH":"2022-06-06T20:44:29.472864","PERIAPSIS":"545.970","MEAN_MOTION_DOT":"-0.00000771","NORAD_CAT_ID":"47602","SITE":"AFETR","MEAN_ELEMENT_THEORY":"SGP4","TLE_LINE2":"2 47602  53.0559  49.9928 0001814  60.2753 299.8417 15.06395818 74160","PERIOD":"95.592","MEAN_MOTION_DDOT":"0.0000000000000","RCS_SIZE":"LARGE","FILE":"3484350","TIME_SYSTEM":"UTC","APOAPSIS":"548.483","TLE_LINE1":"1 47602U 21009BG  22157.86423001 -.00000771  00000-0 -32864-4 0  9996","MEAN_MOTION":"15.06395818","INCLINATION":"53.0559","COUNTRY_CODE":"US","REF_FRAME":"TEME","MEAN_ANOMALY":"299.8417","EPHEMERIS_TYPE":"0","GP_ID":"205526219","OBJECT_NAME":"STARLINK-2007","BSTAR":"-0.00003286400000","CLASSIFICATION_TYPE":"U"},{"DECAY_DATE":null,"ARG_OF_PERICENTER":"56.1629","ELEMENT_SET_NO":"999","REV_AT_EPOCH":"7368","ECCENTRICITY":"0.00022790","RA_OF_ASC_NODE":"81.7196","OBJECT_TYPE":"PAYLOAD","MEAN_ELEMENT_THEORY":"SGP4","SITE":"AFETR","EPOCH":"2022-06-06T11:28:29.971488","OBJECT_ID":"2021-009BH","NORAD_CAT_ID":"47603","PERIAPSIS":"545.631","MEAN_MOTION_DOT":"0.00000493","CENTER_NAME":"EARTH","SEMIMAJOR_AXIS":"6925.345","LAUNCH_DATE":"2021-02-04","TIME_SYSTEM":"UTC","RCS_SIZE":"LARGE","FILE":"3484104","TLE_LINE1":"1 47603U 21009BH  22157.47812467  .00000493  00000-0  52012-4 0  9998","MEAN_MOTION":"15.06401249","INCLINATION":"53.0567","APOAPSIS":"548.788","PERIOD":"95.592","MEAN_MOTION_DDOT":"0.0000000000000","TLE_LINE2":"2 47603  53.0567  81.7196 0002279  56.1629 303.9576 15.06401249 73688","BSTAR":"0.00005201200000","CLASSIFICATION_TYPE":"U","OBJECT_NAME":"STARLINK-2008","MEAN_ANOMALY":"303.9576","EPHEMERIS_TYPE":"0","GP_ID":"205495175","COUNTRY_CODE":"US","REF_FRAME":"TEME"},{"MEAN_MOTION_DDOT":"0.0000000000000","PERIOD":"95.592","TLE_LINE2":"2 47604  53.0555  49.9475 0001886  50.6079 309.5076 15.06402237 74173","MEAN_MOTION":"15.06402237","TLE_LINE1":"1 47604U 21009BJ  22157.87159611  .00000739  00000-0  68478-4 0  9994","INCLINATION":"53.0555","APOAPSIS":"548.513","TIME_SYSTEM":"UTC","FILE":"3484350","RCS_SIZE":"LARGE","GP_ID":"205525746","MEAN_ANOMALY":"309.5076","EPHEMERIS_TYPE":"0","COUNTRY_CODE":"US","REF_FRAME":"TEME","BSTAR":"0.00006847800000","CLASSIFICATION_TYPE":"U","OBJECT_NAME":"STARLINK-2021","ECCENTRICITY":"0.00018860","RA_OF_ASC_NODE":"49.9475","OBJECT_TYPE":"PAYLOAD","ARG_OF_PERICENTER":"50.6079","DECAY_DATE":null,"ELEMENT_SET_NO":"999","REV_AT_EPOCH":"7417","NORAD_CAT_ID":"47604","PERIAPSIS":"545.901","MEAN_MOTION_DOT":"0.00000739","EPOCH":"2022-06-06T20:55:05.903904","OBJECT_ID":"2021-009BJ","LAUNCH_DATE":"2021-02-04","SEMIMAJOR_AXIS":"6925.342","CENTER_NAME":"EARTH","MEAN_ELEMENT_THEORY":"SGP4","SITE":"AFETR"},{"ARG_OF_PERICENTER":"24.5405","DECAY_DATE":null,"ELEMENT_SET_NO":"999","REV_AT_EPOCH":"7531","ECCENTRICITY":"0.00014010","RA_OF_ASC_NODE":"327.7915","OBJECT_TYPE":"PAYLOAD","MEAN_ELEMENT_THEORY":"SGP4","SITE":"AFETR","NORAD_CAT_ID":"47605","PERIAPSIS":"308.739","MEAN_MOTION_DOT":"0.00004589","EPOCH":"2022-06-06T20:52:41.774880","OBJECT_ID":"2021-009BK","LAUNCH_DATE":"2021-02-04","SEMIMAJOR_AXIS":"6687.811","CENTER_NAME":"EARTH","TLE_LINE1":"1 47605U 21009BK  22157.86992795  .00004589  00000-0  19950-4 0  9990","INCLINATION":"53.0424","MEAN_MOTION":"15.87364963","APOAPSIS":"310.613","TIME_SYSTEM":"UTC","FILE":"3484350","RCS_SIZE":"LARGE","MEAN_MOTION_DDOT":"0.0000000000000","PERIOD":"90.716","TLE_LINE2":"2 47605  53.0424 327.7915 0001401  24.5405 335.5685 15.87364963 75315","CLASSIFICATION_TYPE":"U","BSTAR":"0.00001995000000","OBJECT_NAME":"STARLINK-2023","GP_ID":"205526496","EPHEMERIS_TYPE":"0","MEAN_ANOMALY":"335.5685","COUNTRY_CODE":"US","REF_FRAME":"TEME"},{"MEAN_MOTION_DDOT":"0.0000000000000","PERIOD":"95.592","TLE_LINE2":"2 47606  53.0549  49.9470 0001715  62.7746 297.3418 15.06406315 74174","TLE_LINE1":"1 47606U 21009BL  22157.87528019  .00000658  00000-0  63035-4 0  9992","MEAN_MOTION":"15.06406315","INCLINATION":"53.0549","APOAPSIS":"548.382","TIME_SYSTEM":"UTC","RCS_SIZE":"LARGE","FILE":"3484350","GP_ID":"205526720","MEAN_ANOMALY":"297.3418","EPHEMERIS_TYPE":"0","COUNTRY_CODE":"US","REF_FRAME":"TEME","CLASSIFICATION_TYPE":"U","BSTAR":"0.00006303500000","OBJECT_NAME":"STARLINK-2024","ECCENTRICITY":"0.00017150","RA_OF_ASC_NODE":"49.9470","OBJECT_TYPE":"PAYLOAD","ARG_OF_PERICENTER":"62.7746","DECAY_DATE":null,"ELEMENT_SET_NO":"999","REV_AT_EPOCH":"7417","NORAD_CAT_ID":"47606","PERIAPSIS":"546.007","MEAN_MOTION_DOT":"0.00000658","EPOCH":"2022-06-06T21:00:24.208416","OBJECT_ID":"2021-009BL","LAUNCH_DATE":"2021-02-04","CENTER_NAME":"EARTH","SEMIMAJOR_AXIS":"6925.329","MEAN_ELEMENT_THEORY":"SGP4","SITE":"AFETR"},{"PERIOD":"95.592","MEAN_MOTION_DDOT":"0.0000000000000","TLE_LINE2":"2 47607  53.0566  50.6322 0002127  44.3668 315.7491 15.06405111 74142","TIME_SYSTEM":"UTC","RCS_SIZE":"LARGE","FILE":"3484350","INCLINATION":"53.0566","TLE_LINE1":"1 47607U 21009BM  22157.72047176 -.00001200  00000-0 -61611-4 0  9991","MEAN_MOTION":"15.06405111","APOAPSIS":"548.671","EPHEMERIS_TYPE":"0","MEAN_ANOMALY":"315.7491","GP_ID":"205525001","COUNTRY_CODE":"US","REF_FRAME":"TEME","CLASSIFICATION_TYPE":"U","BSTAR":"-0.00006161100000","OBJECT_NAME":"STARLINK-2025","ECCENTRICITY":"0.00021270","RA_OF_ASC_NODE":"50.6322","OBJECT_TYPE":"PAYLOAD","DECAY_DATE":null,"ARG_OF_PERICENTER":"44.3668","ELEMENT_SET_NO":"999","REV_AT_EPOCH":"7414","EPOCH":"2022-06-06T17:17:28.760064","OBJECT_ID":"2021-009BM","NORAD_CAT_ID":"47607","PERIAPSIS":"545.725","MEAN_MOTION_DOT":"-0.00001200","CENTER_NAME":"EARTH","SEMIMAJOR_AXIS":"6925.333","LAUNCH_DATE":"2021-02-04","MEAN_ELEMENT_THEORY":"SGP4","SITE":"AFETR"},{"FILE":"3484350","RCS_SIZE":"LARGE","TIME_SYSTEM":"UTC","APOAPSIS":"548.603","INCLINATION":"53.0550","TLE_LINE1":"1 47620U 21012A   22157.86975290 -.00000932  00000-0 -43678-4 0  9996","MEAN_MOTION":"15.06409750","PERIOD":"95.592","MEAN_MOTION_DDOT":"0.0000000000000","TLE_LINE2":"2 47620  53.0550 109.9539 0002049  55.1041 305.0140 15.06409750 73219","BSTAR":"-0.00004367800000","CLASSIFICATION_TYPE":"U","OBJECT_NAME":"STARLINK-1528","EPHEMERIS_TYPE":"0","MEAN_ANOMALY":"305.0140","GP_ID":"205526497","REF_FRAME":"TEME","COUNTRY_CODE":"US","DECAY_DATE":null,"ARG_OF_PERICENTER":"55.1041","REV_AT_EPOCH":"7321","ELEMENT_SET_NO":"999","RA_OF_ASC_NODE":"109.9539","ECCENTRICITY":"0.00020490","OBJECT_TYPE":"PAYLOAD","MEAN_ELEMENT_THEORY":"SGP4","SITE":"AFETR","OBJECT_ID":"2021-012A","EPOCH":"2022-06-06T20:52:26.650560","PERIAPSIS":"545.765","MEAN_MOTION_DOT":"-0.00000932","NORAD_CAT_ID":"47620","SEMIMAJOR_AXIS":"6925.319","CENTER_NAME":"EARTH","LAUNCH_DATE":"2021-02-16"},{"PERIOD":"95.592","MEAN_MOTION_DDOT":"0.0000000000000","TLE_LINE2":"2 47621  53.0542 111.1856 0002641  49.1361 310.9856 15.06403345 73183","FILE":"3484350","RCS_SIZE":"LARGE","TIME_SYSTEM":"UTC","APOAPSIS":"549.032","INCLINATION":"53.0542","TLE_LINE1":"1 47621U 21012B   22157.59699233  .00001707  00000-0  13346-3 0  9994","MEAN_MOTION":"15.06403345","MEAN_ANOMALY":"310.9856","EPHEMERIS_TYPE":"0","GP_ID":"205526721","REF_FRAME":"TEME","COUNTRY_CODE":"US","BSTAR":"0.00013346000000","CLASSIFICATION_TYPE":"U","OBJECT_NAME":"STARLINK-1609","RA_OF_ASC_NODE":"111.1856","ECCENTRICITY":"0.00026410","OBJECT_TYPE":"PAYLOAD","DECAY_DATE":null,"ARG_OF_PERICENTER":"49.1361","REV_AT_EPOCH":"7318","ELEMENT_SET_NO":"999","OBJECT_ID":"2021-012B","EPOCH":"2022-06-06T14:19:40.137312","MEAN_MOTION_DOT":"0.00001707","PERIAPSIS":"545.374","NORAD_CAT_ID":"47621","CENTER_NAME":"EARTH","SEMIMAJOR_AXIS":"6925.338","LAUNCH_DATE":"2021-02-16","MEAN_ELEMENT_THEORY":"SGP4","SITE":"AFETR"},{"BSTAR":"-0.00001727300000","CLASSIFICATION_TYPE":"U","OBJECT_NAME":"STARLINK-1645","GP_ID":"205525002","MEAN_ANOMALY":"303.9354","EPHEMERIS_TYPE":"0","REF_FRAME":"TEME","COUNTRY_CODE":"US","APOAPSIS":"548.848","INCLINATION":"53.0564","TLE_LINE1":"1 47622U 21012C   22157.85775985 -.00000539  00000-0 -17273-4 0  9991","MEAN_MOTION":"15.06395564","FILE":"3484350","RCS_SIZE":"LARGE","TIME_SYSTEM":"UTC","MEAN_MOTION_DDOT":"0.0000000000000","PERIOD":"95.592","TLE_LINE2":"2 47622  53.0564 110.0023 0002340  56.1858 303.9354 15.06395564 73219","MEAN_ELEMENT_THEORY":"SGP4","SITE":"AFETR","PERIAPSIS":"545.607","MEAN_MOTION_DOT":"-0.00000539","NORAD_CAT_ID":"47622","OBJECT_ID":"2021-012C","EPOCH":"2022-06-06T20:35:10.451040","LAUNCH_DATE":"2021-02-16","CENTER_NAME":"EARTH","SEMIMAJOR_AXIS":"6925.362","ARG_OF_PERICENTER":"56.1858","DECAY_DATE":null,"REV_AT_EPOCH":"7321","ELEMENT_SET_NO":"999","RA_OF_ASC_NODE":"110.0023","ECCENTRICITY":"0.00023400","OBJECT_TYPE":"PAYLOAD"}];
